{
  "type": "FeatureCollection",
  "features": [
    {
      "type": "Feature",
      "properties": {
        "norad_id": 34560,
        "name": "COSMOS 2251 DEB",
        "group": "cosmos-2251-debris",
        "lat": 11.896274763779973,
        "lon": 117.4896318360401,
        "alt_km": 663.51746617138,
        "timestamp": "2025-12-27T03:58:44.541460+00:00",
        "meta_object_name": "COSMOS 2251 DEB",
        "meta_object_id": "1993-036UW",
        "meta_epoch": "2025-12-26T17:04:38.801280",
        "meta_mean_motion": 14.72497641,
        "meta_eccentricity": 0.0013549,
        "meta_inclination": 74.0169,
        "meta_ra_of_asc_node": 114.9128,
        "meta_arg_of_pericenter": 199.4977,
        "meta_mean_anomaly": 286.084,
        "meta_ephemeris_type": 0,
        "meta_classification_type": "U",
        "meta_norad_cat_id": 34560,
        "meta_element_set_no": 999,
        "meta_rev_at_epoch": 88457,
        "meta_bstar": 0.0022819,
        "meta_mean_motion_dot": 0.0001451,
        "meta_mean_motion_ddot": 0,
        "tle_line1": "1 34560U 93036UW  25360.71156020  .00014510  00000+0  22819-2 0  9991",
        "tle_line2": "2 34560  74.0169 114.9128 0013549 199.4977 286.0840 14.72497641884576"
      },
      "geometry": {
        "type": "Point",
        "coordinates": [
          117.4896318360401,
          11.896274763779973
        ]
      }
    },
    {
      "type": "Feature",
      "properties": {
        "norad_id": 34563,
        "name": "COSMOS 2251 DEB",
        "group": "cosmos-2251-debris",
        "lat": -55.93302171132149,
        "lon": 21.81735579324292,
        "alt_km": 735.1045580134778,
        "timestamp": "2025-12-27T03:58:44.541470+00:00",
        "meta_object_name": "COSMOS 2251 DEB",
        "meta_object_id": "1993-036UZ",
        "meta_epoch": "2025-12-26T18:37:48.023328",
        "meta_mean_motion": 14.46553942,
        "meta_eccentricity": 0.0013902,
        "meta_inclination": 74.0365,
        "meta_ra_of_asc_node": 177.5011,
        "meta_arg_of_pericenter": 270.8505,
        "meta_mean_anomaly": 100.91,
        "meta_ephemeris_type": 0,
        "meta_classification_type": "U",
        "meta_norad_cat_id": 34563,
        "meta_element_set_no": 999,
        "meta_rev_at_epoch": 88400,
        "meta_bstar": 0.00049252,
        "meta_mean_motion_dot": 1.75e-05,
        "meta_mean_motion_ddot": 0,
        "tle_line1": "1 34563U 93036UZ  25360.77625027  .00001750  00000+0  49252-3 0  9991",
        "tle_line2": "2 34563  74.0365 177.5011 0013902 270.8505 100.9100 14.46553942884006"
      },
      "geometry": {
        "type": "Point",
        "coordinates": [
          21.81735579324292,
          -55.93302171132149
        ]
      }
    },
    {
      "type": "Feature",
      "properties": {
        "norad_id": 34564,
        "name": "COSMOS 2251 DEB",
        "group": "cosmos-2251-debris",
        "lat": 68.92485156377155,
        "lon": -100.68713518164702,
        "alt_km": 756.6284369472005,
        "timestamp": "2025-12-27T03:58:44.541478+00:00",
        "meta_object_name": "COSMOS 2251 DEB",
        "meta_object_id": "1993-036VA",
        "meta_epoch": "2025-12-26T21:03:32.956128",
        "meta_mean_motion": 14.40712431,
        "meta_eccentricity": 0.0019493,
        "meta_inclination": 74.031,
        "meta_ra_of_asc_node": 211.855,
        "meta_arg_of_pericenter": 313.8248,
        "meta_mean_anomaly": 67.2563,
        "meta_ephemeris_type": 0,
        "meta_classification_type": "U",
        "meta_norad_cat_id": 34564,
        "meta_element_set_no": 999,
        "meta_rev_at_epoch": 88210,
        "meta_bstar": 0.00022867,
        "meta_mean_motion_dot": 7.06e-06,
        "meta_mean_motion_ddot": 0,
        "tle_line1": "1 34564U 93036VA  25360.87746477  .00000706  00000+0  22867-3 0  9999",
        "tle_line2": "2 34564  74.0310 211.8550 0019493 313.8248  67.2563 14.40712431882101"
      },
      "geometry": {
        "type": "Point",
        "coordinates": [
          -100.68713518164702,
          68.92485156377155
        ]
      }
    },
    {
      "type": "Feature",
      "properties": {
        "norad_id": 34567,
        "name": "COSMOS 2251 DEB",
        "group": "cosmos-2251-debris",
        "lat": -22.005797323230922,
        "lon": 124.17559523254884,
        "alt_km": 854.3070749029112,
        "timestamp": "2025-12-27T03:58:44.541488+00:00",
        "meta_object_name": "COSMOS 2251 DEB",
        "meta_object_id": "1993-036VD",
        "meta_epoch": "2025-12-26T18:30:40.311360",
        "meta_mean_motion": 14.24032429,
        "meta_eccentricity": 0.0074034,
        "meta_inclination": 74.0413,
        "meta_ra_of_asc_node": 131.5262,
        "meta_arg_of_pericenter": 202.7595,
        "meta_mean_anomaly": 272.239,
        "meta_ephemeris_type": 0,
        "meta_classification_type": "U",
        "meta_norad_cat_id": 34567,
        "meta_element_set_no": 999,
        "meta_rev_at_epoch": 87324,
        "meta_bstar": 0.00027646,
        "meta_mean_motion_dot": 6.28e-06,
        "meta_mean_motion_ddot": 0,
        "tle_line1": "1 34567U 93036VD  25360.77129990  .00000628  00000+0  27646-3 0  9999",
        "tle_line2": "2 34567  74.0413 131.5262 0074034 202.7595 272.2390 14.24032429873244"
      },
      "geometry": {
        "type": "Point",
        "coordinates": [
          124.17559523254884,
          -22.005797323230922
        ]
      }
    },
    {
      "type": "Feature",
      "properties": {
        "norad_id": 34569,
        "name": "COSMOS 2251 DEB",
        "group": "cosmos-2251-debris",
        "lat": -1.5426013810977912,
        "lon": -7.506440985157158,
        "alt_km": 925.1785071464074,
        "timestamp": "2025-12-27T03:58:44.541497+00:00",
        "meta_object_name": "COSMOS 2251 DEB",
        "meta_object_id": "1993-036VF",
        "meta_epoch": "2025-12-26T13:58:05.758176",
        "meta_mean_motion": 14.24786035,
        "meta_eccentricity": 0.015791,
        "meta_inclination": 73.9894,
        "meta_ra_of_asc_node": 173.1059,
        "meta_arg_of_pericenter": 358.3355,
        "meta_mean_anomaly": 70.1274,
        "meta_ephemeris_type": 0,
        "meta_classification_type": "U",
        "meta_norad_cat_id": 34569,
        "meta_element_set_no": 999,
        "meta_rev_at_epoch": 87165,
        "meta_bstar": 0.00046481,
        "meta_mean_motion_dot": 1.207e-05,
        "meta_mean_motion_ddot": 0,
        "tle_line1": "1 34569U 93036VF  25360.58201109  .00001207  00000+0  46481-3 0  9995",
        "tle_line2": "2 34569  73.9894 173.1059 0157910 358.3355  70.1274 14.24786035871658"
      },
      "geometry": {
        "type": "Point",
        "coordinates": [
          -7.506440985157158,
          -1.5426013810977912
        ]
      }
    },
    {
      "type": "Feature",
      "properties": {
        "norad_id": 34570,
        "name": "COSMOS 2251 DEB",
        "group": "cosmos-2251-debris",
        "lat": -70.11306975201566,
        "lon": 65.88921492840822,
        "alt_km": 1038.8893608371518,
        "timestamp": "2025-12-27T03:58:44.541506+00:00",
        "meta_object_name": "COSMOS 2251 DEB",
        "meta_object_id": "1993-036VG",
        "meta_epoch": "2025-12-25T13:10:11.389152",
        "meta_mean_motion": 13.99841179,
        "meta_eccentricity": 0.0190153,
        "meta_inclination": 73.9578,
        "meta_ra_of_asc_node": 196.0084,
        "meta_arg_of_pericenter": 75.6314,
        "meta_mean_anomaly": 316.795,
        "meta_ephemeris_type": 0,
        "meta_classification_type": "U",
        "meta_norad_cat_id": 34570,
        "meta_element_set_no": 999,
        "meta_rev_at_epoch": 85780,
        "meta_bstar": 0.00046738,
        "meta_mean_motion_dot": 7.78e-06,
        "meta_mean_motion_ddot": 0,
        "tle_line1": "1 34570U 93036VG  25359.54874293  .00000778  00000+0  46738-3 0  9998",
        "tle_line2": "2 34570  73.9578 196.0084 0190153  75.6314 316.7950 13.99841179857804"
      },
      "geometry": {
        "type": "Point",
        "coordinates": [
          65.88921492840822,
          -70.11306975201566
        ]
      }
    },
    {
      "type": "Feature",
      "properties": {
        "norad_id": 34571,
        "name": "COSMOS 2251 DEB",
        "group": "cosmos-2251-debris",
        "lat": 42.41129733102387,
        "lon": -39.757986398310685,
        "alt_km": 696.2122645751051,
        "timestamp": "2025-12-27T03:58:44.541515+00:00",
        "meta_object_name": "COSMOS 2251 DEB",
        "meta_object_id": "1993-036VH",
        "meta_epoch": "2025-12-24T20:40:26.923008",
        "meta_mean_motion": 14.49017935,
        "meta_eccentricity": 0.0064888,
        "meta_inclination": 74.0401,
        "meta_ra_of_asc_node": 159.7142,
        "meta_arg_of_pericenter": 192.1385,
        "meta_mean_anomaly": 167.8215,
        "meta_ephemeris_type": 0,
        "meta_classification_type": "U",
        "meta_norad_cat_id": 34571,
        "meta_element_set_no": 999,
        "meta_rev_at_epoch": 87469,
        "meta_bstar": 0.003002,
        "meta_mean_motion_dot": 0.00011689,
        "meta_mean_motion_ddot": 0,
        "tle_line1": "1 34571U 93036VH  25358.86142272  .00011689  00000+0  30020-2 0  9997",
        "tle_line2": "2 34571  74.0401 159.7142 0064888 192.1385 167.8215 14.49017935874697"
      },
      "geometry": {
        "type": "Point",
        "coordinates": [
          -39.757986398310685,
          42.41129733102387
        ]
      }
    }
  ]
}